CAS-2T & KS-1Q          
1 41847U 16066G   21163.74395789  .00000111  00000-0  27767-4 0  9994
2 41847  98.6012 222.8552 0364289 234.3466 122.3295 14.38194834241206
NAYIF-1 (EO-88)         
1 42017U 17008BX  21163.71553606  .00002405  00000-0  90200-4 0  9992
2 42017  97.3156 231.3999 0007605 119.0324 241.1678 15.28169715240539
ZHUHAI-1 02 (CAS-4B)    
1 42759U 17034B   21163.60754588  .00000293  00000-0  30908-4 0  9996
2 42759  43.0168 207.7241 0007460 138.8412 356.7982 15.10224456220417
ZHUHAI-1 01 (CAS-4A)    
1 42761U 17034D   21163.86950360  .00000305  00000-0  31580-4 0  9994
2 42761  43.0166 205.3417 0007791 141.2307  27.9468 15.10311950220451
MAX VALIER SAT          
1 42778U 17036P   21163.70659393  .00001313  00000-0  57643-4 0  9997
2 42778  97.2550 212.4732 0011697 184.2301 175.8840 15.23602365220563
RADFXSAT (FOX-1B)       
1 43017U 17073E   21163.66694751  .00000722  00000-0  61453-4 0  9994
2 43017  97.7074  67.8431 0253919 316.3004  41.8349 14.79559523192412
FOX-1D (AO-92)          
1 43137U 18004AC  21163.74048728  .00001437  00000-0  60016-4 0  9996
2 43137  97.4067 237.8197 0007691 219.0150 141.0534 15.25249586189947
DIWATA-2B               
1 43678U 18084H   21163.75821169 -.00000272  00000-0 -21203-4 0  9996
2 43678  97.9234 289.0132 0011320  68.8637 291.3796 14.91749651142735
ES'HAIL 2               
1 43700U 18090A   21163.68355067  .00000156  00000-0  00000-0 0  9997
2 43700   0.0152  34.6827 0000984  64.8468  73.5781  1.00273562  9322
FOX-1CLIFF (AO-95)      
1 43770U 18099N   21163.76580795  .00000085  00000-0  12834-4 0  9993
2 43770  97.6651 234.0565 0016051  75.2513 285.0485 14.95325927137750
ITASAT 1                
1 43786U 18099AE  21163.75285275  .00000618  00000-0  60681-4 0  9999
2 43786  97.6672 234.7184 0016706  69.2790 291.0220 14.95620365137782
JY1SAT (JO-97)          
1 43803U 18099AX  21163.71748100  .00000166  00000-0  19937-4 0  9992
2 43803  97.6628 234.4363 0016395  69.1177 291.1798 14.95863412137784
UWE-4                   
1 43880U 18111E   21163.70427998  .00000582  00000-0  55709-4 0  9999
2 43880  97.6881  71.5185 0013735 115.5797 244.6846 14.96873118134375
PSAT2 (NO-104)          
1 44354U 19036R   21163.68916302  .00013208  00000-0  17292-3 0  9995
2 44354  28.5279 158.8031 0325805 224.3483 133.0575 15.13386267108252
BRICSAT2 (NO-103)       
1 44355U 19036S   21163.57663365  .00036890  00000-0  40612-3 0  9996
2 44355  28.5264 115.3054 0264641 295.2626  62.0767 15.29261272108682
JAISAT-1                
1 44419U 19038F   21163.81276071  .00001258  00000-0  73204-4 0  9994
2 44419  97.5882 128.5305 0020295 332.8622  27.1546 15.13760787107098
DUCHIFAT-3              
1 44854U 19089C   21163.93230168  .00000482  00000-0  44933-4 0  9998
2 44854  36.9642 127.3699 0007012  99.7119 260.4418 14.99498435 82427
RS-44 & BREEZE-KM R/B   
1 44909U 19096E   21163.78038216  .00000031  00000-0  71993-4 0  9996
2 44909  82.5203 115.9176 0218502 103.9250 258.6258 12.79710153 68226
ORBITAL FACTORY 2 (OF-2)
1 45113U 19071C   21163.72022593  .00003687  00000-0  11519-3 0  9999
2 45113  51.6431  60.4617 0011169 277.0422  82.9290 15.35744811 76442
HUSKYSAT-1 (HO-107)     
1 45119U 19071J   21163.73171228  .00002685  00000-0  86817-4 0  9997
2 45119  51.6428  59.7838 0010533 273.4889  86.4890 15.35771091 76446
BY70-2                  
1 45857U 20042B   21163.90295578  .00001236  00000-0  18251-3 0  9997
2 45857  97.9840 239.6974 0010007 220.3851 139.6613 14.77020421 50874
SALSAT                  
1 46495U 20068K   21163.86874163 -.00000084  00000-0 -16021-5 0  9999
2 46495  97.6951 101.3920 0019037  86.7887 273.5516 15.03458601 38640
BY70-3                  
1 46839U 20079N   21163.96096019  .00003158  00000-0  99389-4 0  9990
2 46839  97.2406 237.9053 0006066 209.8745 324.6558 15.33655085 33518
RADFXSAT-2 (AO-109)     
1 47311U 21002C   21163.75841635  .00000933  00000-0  52487-4 0  9998
2 47311  60.6846 308.7719 0035948  45.4255 314.9756 15.21641712 22152
UVSQ-SAT                
1 47438U 21006AB  21163.68641933  .00000928  00000-0  55928-4 0  9990
2 47438  97.4873 224.9955 0014331 112.4821 247.7929 15.13131065 21338
DIY-1 (ARDUIQUBE)       
1 47963U 21022AH  21163.51536697  .00002002  00000-0  13655-3 0  9998
2 47963  97.5595  65.9367 0018782 327.5267  32.4804 15.07232179 11151
